[{"OBJECT_NAME":"STARLINK-33759","OBJECT_ID":"2025-101P","EPOCH":"2026-03-09T03:20:32.528832","MEAN_MOTION":15.275816,"ECCENTRICITY":0.00019282,"INCLINATION":43.003,"RA_OF_ASC_NODE":0.8461,"ARG_OF_PERICENTER":252.9816,"MEAN_ANOMALY":107.0825,"EPHEMERIS_TYPE":0,"CLASSIFICATION_TYPE":"U","NORAD_CAT_ID":64007,"ELEMENT_SET_NO":999,"REV_AT_EPOCH":4697,"BSTAR":0.001419561,"MEAN_MOTION_DOT":0.0003901,"MEAN_MOTION_DDOT":0},{"OBJECT_NAME":"FENGYUN 1C DEB","OBJECT_ID":"1999-025CCU","EPOCH":"2026-03-09T04:16:51.250080","MEAN_MOTION":14.7380712,"ECCENTRICITY":0.02770831,"INCLINATION":98.1363,"RA_OF_ASC_NODE":145.1449,"ARG_OF_PERICENTER":173.2574,"MEAN_ANOMALY":217.8544,"EPHEMERIS_TYPE":0,"CLASSIFICATION_TYPE":"U","NORAD_CAT_ID":31686,"ELEMENT_SET_NO":999,"REV_AT_EPOCH":99091,"BSTAR":0.001175879,"MEAN_MOTION_DOT":0.00014291,"MEAN_MOTION_DDOT":0}]
